{
  "type": "FeatureCollection",
  "features": [
    {
      "type": "Feature",
      "properties": {
        "norad_id": 43719,
        "name": "HYSIS",
        "group": "resource",
        "lat": -74.20089099951332,
        "lon": 70.16377643416926,
        "alt_km": 642.015252317462,
        "timestamp": "2025-12-03T06:58:42.899042+00:00",
        "meta_object_name": "HYSIS",
        "meta_object_id": "2018-096A",
        "meta_epoch": "2025-12-02T19:57:15.894144",
        "meta_mean_motion": 14.78597379,
        "meta_eccentricity": 0.0001693,
        "meta_inclination": 98.0111,
        "meta_ra_of_asc_node": 39.8572,
        "meta_arg_of_pericenter": 67.9481,
        "meta_mean_anomaly": 292.191,
        "meta_ephemeris_type": 0,
        "meta_classification_type": "U",
        "meta_norad_cat_id": 43719,
        "meta_element_set_no": 999,
        "meta_rev_at_epoch": 37840,
        "meta_bstar": 2.3022e-05,
        "meta_mean_motion_dot": 1.16e-06,
        "meta_mean_motion_ddot": 0,
        "tle_line1": "1 43719U 18096A   25336.83143396  .00000116  00000+0  23022-4 0  9994",
        "tle_line2": "2 43719  98.0111  39.8572 0001693  67.9481 292.1910 14.78597379378400"
      },
      "geometry": {
        "type": "Point",
        "coordinates": [
          70.16377643416926,
          -74.20089099951332
        ]
      }
    },
    {
      "type": "Feature",
      "properties": {
        "norad_id": 43783,
        "name": "KAZSTSAT",
        "group": "resource",
        "lat": 2.780699109555151,
        "lon": -166.75349197780378,
        "alt_km": 576.2810525764589,
        "timestamp": "2025-12-03T06:58:42.899053+00:00",
        "meta_object_name": "KAZSTSAT",
        "meta_object_id": "2018-099AB",
        "meta_epoch": "2025-12-02T14:10:25.767264",
        "meta_mean_motion": 14.99295651,
        "meta_eccentricity": 0.00065816,
        "meta_inclination": 97.4552,
        "meta_ra_of_asc_node": 12.212,
        "meta_arg_of_pericenter": 7.2234,
        "meta_mean_anomaly": 352.9084,
        "meta_ephemeris_type": 0,
        "meta_classification_type": "U",
        "meta_norad_cat_id": 43783,
        "meta_element_set_no": 999,
        "meta_rev_at_epoch": 38184,
        "meta_bstar": 0.0002208698,
        "meta_mean_motion_dot": 2.642e-05,
        "meta_mean_motion_ddot": 0,
        "tle_line1": "1 43783U 18099AB  25336.59057601  .00002642  00000+0  22087-3 0  9999",
        "tle_line2": "2 43783  97.4552  12.2120 0006581   7.2234 352.9084 14.99295651381841"
      },
      "geometry": {
        "type": "Point",
        "coordinates": [
          -166.75349197780378,
          2.780699109555151
        ]
      }
    },
    {
      "type": "Feature",
      "properties": {
        "norad_id": 43831,
        "name": "SAUDISAT 5A",
        "group": "resource",
        "lat": 57.77782945929831,
        "lon": 25.86823623767638,
        "alt_km": 478.2821349142696,
        "timestamp": "2025-12-03T06:58:42.899065+00:00",
        "meta_object_name": "SAUDISAT 5A",
        "meta_object_id": "2018-102A",
        "meta_epoch": "2025-12-02T21:16:37.900128",
        "meta_mean_motion": 15.25460709,
        "meta_eccentricity": 0.0011775,
        "meta_inclination": 97.3375,
        "meta_ra_of_asc_node": 37.269,
        "meta_arg_of_pericenter": 106.4526,
        "meta_mean_anomaly": 253.8008,
        "meta_ephemeris_type": 0,
        "meta_classification_type": "U",
        "meta_norad_cat_id": 43831,
        "meta_element_set_no": 999,
        "meta_rev_at_epoch": 38572,
        "meta_bstar": 0.00032859,
        "meta_mean_motion_dot": 8.26e-05,
        "meta_mean_motion_ddot": 0,
        "tle_line1": "1 43831U 18102A   25336.88654977  .00008260  00000+0  32859-3 0  9999",
        "tle_line2": "2 43831  97.3375  37.2690 0011775 106.4526 253.8008 15.25460709385727"
      },
      "geometry": {
        "type": "Point",
        "coordinates": [
          25.86823623767638,
          57.77782945929831
        ]
      }
    },
    {
      "type": "Feature",
      "properties": {
        "norad_id": 43833,
        "name": "SAUDISAT 5B",
        "group": "resource",
        "lat": 78.49879356605273,
        "lon": -100.25813128926173,
        "alt_km": 472.55691017448953,
        "timestamp": "2025-12-03T06:58:42.899076+00:00",
        "meta_object_name": "SAUDISAT 5B",
        "meta_object_id": "2018-102C",
        "meta_epoch": "2025-12-02T21:06:13.780224",
        "meta_mean_motion": 15.25818746,
        "meta_eccentricity": 0.0012439,
        "meta_inclination": 97.347,
        "meta_ra_of_asc_node": 39.9828,
        "meta_arg_of_pericenter": 109.0409,
        "meta_mean_anomaly": 251.2178,
        "meta_ephemeris_type": 0,
        "meta_classification_type": "U",
        "meta_norad_cat_id": 43833,
        "meta_element_set_no": 999,
        "meta_rev_at_epoch": 38583,
        "meta_bstar": 0.00033116,
        "meta_mean_motion_dot": 8.417e-05,
        "meta_mean_motion_ddot": 0,
        "tle_line1": "1 43833U 18102C   25336.87932616  .00008417  00000+0  33116-3 0  9990",
        "tle_line2": "2 43833  97.3470  39.9828 0012439 109.0409 251.2178 15.25818746385834"
      },
      "geometry": {
        "type": "Point",
        "coordinates": [
          -100.25813128926173,
          78.49879356605273
        ]
      }
    },
    {
      "type": "Feature",
      "properties": {
        "norad_id": 44622,
        "name": "GAOFEN-10R",
        "group": "resource",
        "lat": 66.04778333830785,
        "lon": -93.75823127792245,
        "alt_km": 608.4739895410885,
        "timestamp": "2025-12-03T06:58:42.899087+00:00",
        "meta_object_name": "GAOFEN-10R",
        "meta_object_id": "2019-066A",
        "meta_epoch": "2025-12-02T20:57:30.959136",
        "meta_mean_motion": 14.82734501,
        "meta_eccentricity": 0.0008265,
        "meta_inclination": 98.026,
        "meta_ra_of_asc_node": 284.3422,
        "meta_arg_of_pericenter": 68.7397,
        "meta_mean_anomaly": 291.4698,
        "meta_ephemeris_type": 0,
        "meta_classification_type": "U",
        "meta_norad_cat_id": 44622,
        "meta_element_set_no": 999,
        "meta_rev_at_epoch": 33328,
        "meta_bstar": 0.00031986,
        "meta_mean_motion_dot": 2.53e-05,
        "meta_mean_motion_ddot": 0,
        "tle_line1": "1 44622U 19066A   25336.87327499  .00002530  00000+0  31986-3 0  9997",
        "tle_line2": "2 44622  98.0260 284.3422 0008265  68.7397 291.4698 14.82734501333284"
      },
      "geometry": {
        "type": "Point",
        "coordinates": [
          -93.75823127792245,
          66.04778333830785
        ]
      }
    },
    {
      "type": "Feature",
      "properties": {
        "norad_id": 44804,
        "name": "CARTOSAT-3",
        "group": "resource",
        "lat": 69.34027635371523,
        "lon": 16.657578349371466,
        "alt_km": 494.8422583079155,
        "timestamp": "2025-12-03T06:58:42.899098+00:00",
        "meta_object_name": "CARTOSAT-3",
        "meta_object_id": "2019-081A",
        "meta_epoch": "2025-12-02T19:36:12.348576",
        "meta_mean_motion": 15.19228615,
        "meta_eccentricity": 0.001377,
        "meta_inclination": 97.4602,
        "meta_ra_of_asc_node": 36.5251,
        "meta_arg_of_pericenter": 118.2296,
        "meta_mean_anomaly": 242.0331,
        "meta_ephemeris_type": 0,
        "meta_classification_type": "U",
        "meta_norad_cat_id": 44804,
        "meta_element_set_no": 999,
        "meta_rev_at_epoch": 33365,
        "meta_bstar": 0.0001422,
        "meta_mean_motion_dot": 2.933e-05,
        "meta_mean_motion_ddot": 0,
        "tle_line1": "1 44804U 19081A   25336.81680959  .00002933  00000+0  14220-3 0  9992",
        "tle_line2": "2 44804  97.4602  36.5251 0013770 118.2296 242.0331 15.19228615333654"
      },
      "geometry": {
        "type": "Point",
        "coordinates": [
          16.657578349371466,
          69.34027635371523
        ]
      }
    },
    {
      "type": "Feature",
      "properties": {
        "norad_id": 44819,
        "name": "GAOFEN-12 01",
        "group": "resource",
        "lat": 45.90475003939912,
        "lon": -24.32692352604357,
        "alt_km": 623.5980871535703,
        "timestamp": "2025-12-03T06:58:42.899108+00:00",
        "meta_object_name": "GAOFEN-12 01",
        "meta_object_id": "2019-082A",
        "meta_epoch": "2025-12-02T21:02:16.749600",
        "meta_mean_motion": 14.80638406,
        "meta_eccentricity": 0.0001296,
        "meta_inclination": 97.8128,
        "meta_ra_of_asc_node": 343.4165,
        "meta_arg_of_pericenter": 301.4447,
        "meta_mean_anomaly": 58.6639,
        "meta_ephemeris_type": 0,
        "meta_classification_type": "U",
        "meta_norad_cat_id": 44819,
        "meta_element_set_no": 999,
        "meta_rev_at_epoch": 32504,
        "meta_bstar": 0.00010427,
        "meta_mean_motion_dot": 7.5e-06,
        "meta_mean_motion_ddot": 0,
        "tle_line1": "1 44819U 19082A   25336.87658275  .00000750  00000+0  10427-3 0  9991",
        "tle_line2": "2 44819  97.8128 343.4165 0001296 301.4447  58.6639 14.80638406325041"
      },
      "geometry": {
        "type": "Point",
        "coordinates": [
          -24.32692352604357,
          45.90475003939912
        ]
      }
    }
  ]
}